[{"OBJECT_NAME":"STARLINK-32746","OBJECT_ID":"2025-014L","EPOCH":"2026-03-09T07:20:09.459456","MEAN_MOTION":15.2759143,"ECCENTRICITY":0.00024876,"INCLINATION":42.9997,"RA_OF_ASC_NODE":156.1243,"ARG_OF_PERICENTER":288.6677,"MEAN_ANOMALY":71.3904,"EPHEMERIS_TYPE":0,"CLASSIFICATION_TYPE":"U","NORAD_CAT_ID":62745,"ELEMENT_SET_NO":999,"REV_AT_EPOCH":6320,"BSTAR":0.0013102348,"MEAN_MOTION_DOT":0.00035983,"MEAN_MOTION_DDOT":0},{"OBJECT_NAME":"HERMES-3","OBJECT_ID":"2025-052BR","EPOCH":"2026-03-09T22:30:01.073952","MEAN_MOTION":15.30039786,"ECCENTRICITY":0.00079928,"INCLINATION":97.3987,"RA_OF_ASC_NODE":324.6131,"ARG_OF_PERICENTER":112.9583,"MEAN_ANOMALY":247.2502,"EPHEMERIS_TYPE":0,"CLASSIFICATION_TYPE":"U","NORAD_CAT_ID":63835,"ELEMENT_SET_NO":999,"REV_AT_EPOCH":5486,"BSTAR":0.0006995793,"MEAN_MOTION_DOT":0.00020316,"MEAN_MOTION_DDOT":0}]
